{
  "norad_id": 49008,
  "name": "FENGYUN 3E",
  "history": [
    {
      "epoch": "2026-03-28T22:33:05.504256Z",
      "apogee_km": 826.6783550998007,
      "perigee_km": 824.7370630276018,
      "latitude_deg": 1.4550557380749018e-05,
      "longitude_deg": -72.38653095465641,
      "height_km": 827.6513000979879,
      "semi_major_axis_km": 7203.844709063701,
      "eccentricity": 0.00013474,
      "inclination_deg": 98.752,
      "raan_deg": 92.2393,
      "arg_perigee_deg": 3.2848,
      "mean_anomaly_deg": 356.8337,
      "mean_motion_rev_day": 14.19895061
    },
    {
      "epoch": "2026-03-29T03:37:30.622368Z",
      "apogee_km": 826.6693812908252,
      "perigee_km": 824.7416330359083,
      "latitude_deg": -2.9679946882518037e-05,
      "longitude_deg": -148.49035007995118,
      "height_km": 827.6560485856915,
      "semi_major_axis_km": 7203.8425071633665,
      "eccentricity": 0.0001338,
      "inclination_deg": 98.752,
      "raan_deg": 92.4485,
      "arg_perigee_deg": 3.4737,
      "mean_anomaly_deg": 356.6448,
      "mean_motion_rev_day": 14.19895712
    },
    {
      "epoch": "2026-03-30T04:59:36.201696Z",
      "apogee_km": 826.6223015959849,
      "perigee_km": 824.778119270115,
      "latitude_deg": -4.745504908944596e-05,
      "longitude_deg": -169.01032951719716,
      "height_km": 827.6909770496095,
      "semi_major_axis_km": 7203.83721043305,
      "eccentricity": 0.000128,
      "inclination_deg": 98.7517,
      "raan_deg": 93.4936,
      "arg_perigee_deg": 359.397,
      "mean_anomaly_deg": 0.7204,
      "mean_motion_rev_day": 14.19897278
    },
    {
      "epoch": "2026-03-30T06:41:04.566048Z",
      "apogee_km": 826.6230664300156,
      "perigee_km": 824.7754265095218,
      "latitude_deg": -7.435805674015586e-05,
      "longitude_deg": 165.6218342617963,
      "height_km": 827.6883599233686,
      "semi_major_axis_km": 7203.836246469768,
      "eccentricity": 0.00012824,
      "inclination_deg": 98.7516,
      "raan_deg": 93.5634,
      "arg_perigee_deg": 359.1136,
      "mean_anomaly_deg": 1.0037,
      "mean_motion_rev_day": 14.19897563
    },
    {
      "epoch": "2026-03-30T13:26:58.058016Z",
      "apogee_km": 826.613977447113,
      "perigee_km": 824.7847793139144,
      "latitude_deg": -7.167849026031204e-05,
      "longitude_deg": 64.14962809491853,
      "height_km": 827.6982535887022,
      "semi_major_axis_km": 7203.836378380513,
      "eccentricity": 0.00012696,
      "inclination_deg": 98.7515,
      "raan_deg": 93.8419,
      "arg_perigee_deg": 357.9111,
      "mean_anomaly_deg": 2.2059,
      "mean_motion_rev_day": 14.19897524
    }
  ]
}